CCSDS_OMM_VERS = 2.0
CREATION_DATE  = 
ORIGINATOR     = 

OBJECT_NAME    = ASTRO-H (HITOMI)
OBJECT_ID      = 2016-012A
CENTER_NAME    = EARTH
REF_FRAME      = TEME
TIME_SYSTEM    = UTC
MEAN_ELEMENT_THEORY = SGP/SGP4

EPOCH          = 2025-12-20T15:01:05.803104
MEAN_MOTION    = 15.09397922
ECCENTRICITY   = .0009722
INCLINATION    = 30.9979
RA_OF_ASC_NODE = 146.5292
ARG_OF_PERICENTER = 257.8770
MEAN_ANOMALY   = 102.0779

EPHEMERIS_TYPE = 0
CLASSIFICATION_TYPE = U
NORAD_CAT_ID   = 41337
ELEMENT_SET_NO = 999
REV_AT_EPOCH   = 54027
BSTAR          = .13855E-3
MEAN_MOTION_DOT = .2365E-4
MEAN_MOTION_DDOT = 0

CCSDS_OMM_VERS = 2.0
CREATION_DATE  = 
ORIGINATOR     = 

OBJECT_NAME    = HXMT (HUIYAN)
OBJECT_ID      = 2017-034A
CENTER_NAME    = EARTH
REF_FRAME      = TEME
TIME_SYSTEM    = UTC
MEAN_ELEMENT_THEORY = SGP/SGP4

EPOCH          = 2025-12-20T18:16:45.162912
MEAN_MOTION    = 15.16320013
ECCENTRICITY   = .00310716
INCLINATION    = 43.0144
RA_OF_ASC_NODE = 95.1101
ARG_OF_PERICENTER = 96.1198
MEAN_ANOMALY   = 264.3191

EPHEMERIS_TYPE = 0
CLASSIFICATION_TYPE = U
NORAD_CAT_ID   = 42758
ELEMENT_SET_NO = 999
REV_AT_EPOCH   = 47055
BSTAR          = .22447373E-3
MEAN_MOTION_DOT = .4243E-4
MEAN_MOTION_DDOT = 0

CCSDS_OMM_VERS = 2.0
CREATION_DATE  = 
ORIGINATOR     = 

OBJECT_NAME    = CZ-2C R/B
OBJECT_ID      = 2018-054D
CENTER_NAME    = EARTH
REF_FRAME      = TEME
TIME_SYSTEM    = UTC
MEAN_ELEMENT_THEORY = SGP/SGP4

EPOCH          = 2025-12-20T11:13:40.275264
MEAN_MOTION    = 15.75638299
ECCENTRICITY   = .00151005
INCLINATION    = 35.1325
RA_OF_ASC_NODE = 128.4252
ARG_OF_PERICENTER = 222.0230
MEAN_ANOMALY   = 137.9345

EPHEMERIS_TYPE = 0
CLASSIFICATION_TYPE = U
NORAD_CAT_ID   = 43521
ELEMENT_SET_NO = 999
REV_AT_EPOCH   = 41627
BSTAR          = .52782706E-3
MEAN_MOTION_DOT = .85209E-3
MEAN_MOTION_DDOT = 0

CCSDS_OMM_VERS = 2.0
CREATION_DATE  = 
ORIGINATOR     = 

OBJECT_NAME    = SAOCOM 1A
OBJECT_ID      = 2018-076A
CENTER_NAME    = EARTH
REF_FRAME      = TEME
TIME_SYSTEM    = UTC
MEAN_ELEMENT_THEORY = SGP/SGP4

EPOCH          = 2025-12-19T21:29:30.366240
MEAN_MOTION    = 14.82168152
ECCENTRICITY   = .0001511
INCLINATION    = 97.8839
RA_OF_ASC_NODE = 178.2129
ARG_OF_PERICENTER = 80.1993
MEAN_ANOMALY   = 279.9391

EPHEMERIS_TYPE = 0
CLASSIFICATION_TYPE = U
NORAD_CAT_ID   = 43641
ELEMENT_SET_NO = 999
REV_AT_EPOCH   = 38954
BSTAR          = .13119E-3
MEAN_MOTION_DOT = .993E-5
MEAN_MOTION_DDOT = 0

CCSDS_OMM_VERS = 2.0
CREATION_DATE  = 
ORIGINATOR     = 

OBJECT_NAME    = H-2A R/B
OBJECT_ID      = 2018-084L
CENTER_NAME    = EARTH
REF_FRAME      = TEME
TIME_SYSTEM    = UTC
MEAN_ELEMENT_THEORY = SGP/SGP4

EPOCH          = 2025-12-19T12:37:28.216128
MEAN_MOTION    = 15.37604041
ECCENTRICITY   = .0026889
INCLINATION    = 98.8764
RA_OF_ASC_NODE = 189.0125
ARG_OF_PERICENTER = 302.7309
MEAN_ANOMALY   = 57.1340

EPHEMERIS_TYPE = 0
CLASSIFICATION_TYPE = U
NORAD_CAT_ID   = 43682
ELEMENT_SET_NO = 999
REV_AT_EPOCH   = 39344
BSTAR          = .37146E-3
MEAN_MOTION_DOT = .13775E-3
MEAN_MOTION_DDOT = 0

CCSDS_OMM_VERS = 2.0
CREATION_DATE  = 
ORIGINATOR     = 

OBJECT_NAME    = SAOCOM 1B
OBJECT_ID      = 2020-059A
CENTER_NAME    = EARTH
REF_FRAME      = TEME
TIME_SYSTEM    = UTC
MEAN_ELEMENT_THEORY = SGP/SGP4

EPOCH          = 2025-12-20T22:32:47.580576
MEAN_MOTION    = 14.82145975
ECCENTRICITY   = .00014304
INCLINATION    = 97.8833
RA_OF_ASC_NODE = 178.3419
ARG_OF_PERICENTER = 87.7970
MEAN_ANOMALY   = 272.3407

EPHEMERIS_TYPE = 0
CLASSIFICATION_TYPE = U
NORAD_CAT_ID   = 46265
ELEMENT_SET_NO = 999
REV_AT_EPOCH   = 28708
BSTAR          = .10130754E-3
MEAN_MOTION_DOT = .754E-5
MEAN_MOTION_DDOT = 0

CCSDS_OMM_VERS = 2.0
CREATION_DATE  = 
ORIGINATOR     = 

OBJECT_NAME    = CSS (TIANHE)
OBJECT_ID      = 2021-035A
CENTER_NAME    = EARTH
REF_FRAME      = TEME
TIME_SYSTEM    = UTC
MEAN_ELEMENT_THEORY = SGP/SGP4

EPOCH          = 2025-12-20T23:26:14.890272
MEAN_MOTION    = 15.59514827
ECCENTRICITY   = .00077445
INCLINATION    = 41.4685
RA_OF_ASC_NODE = 326.6888
ARG_OF_PERICENTER = 103.1948
MEAN_ANOMALY   = 256.9755

EPHEMERIS_TYPE = 0
CLASSIFICATION_TYPE = U
NORAD_CAT_ID   = 48274
ELEMENT_SET_NO = 999
REV_AT_EPOCH   = 26531
BSTAR          = .17446348E-3
MEAN_MOTION_DOT = .13949E-3
MEAN_MOTION_DDOT = 0

CCSDS_OMM_VERS = 2.0
CREATION_DATE  = 
ORIGINATOR     = 

OBJECT_NAME    = COSMOS 2550
OBJECT_ID      = 2021-056A
CENTER_NAME    = EARTH
REF_FRAME      = TEME
TIME_SYSTEM    = UTC
MEAN_ELEMENT_THEORY = SGP/SGP4

EPOCH          = 2025-12-19T21:34:23.418624
MEAN_MOTION    = 15.33838622
ECCENTRICITY   = .0008368
INCLINATION    = 67.1455
RA_OF_ASC_NODE = 282.2793
ARG_OF_PERICENTER = 269.6426
MEAN_ANOMALY   = 90.3770

EPHEMERIS_TYPE = 0
CLASSIFICATION_TYPE = U
NORAD_CAT_ID   = 48865
ELEMENT_SET_NO = 999
REV_AT_EPOCH   = 25122
BSTAR          = .8251269E-5
MEAN_MOTION_DOT = .8E-6
MEAN_MOTION_DDOT = 0

CCSDS_OMM_VERS = 2.0
CREATION_DATE  = 
ORIGINATOR     = 

OBJECT_NAME    = CZ-2C R/B
OBJECT_ID      = 2022-058K
CENTER_NAME    = EARTH
REF_FRAME      = TEME
TIME_SYSTEM    = UTC
MEAN_ELEMENT_THEORY = SGP/SGP4

EPOCH          = 2025-12-20T05:27:10.003104
MEAN_MOTION    = 15.48848735
ECCENTRICITY   = .0044965
INCLINATION    = 50.1915
RA_OF_ASC_NODE = 5.3549
ARG_OF_PERICENTER = 229.4522
MEAN_ANOMALY   = 130.2527

EPHEMERIS_TYPE = 0
CLASSIFICATION_TYPE = U
NORAD_CAT_ID   = 52794
ELEMENT_SET_NO = 999
REV_AT_EPOCH   = 19779
BSTAR          = .34392E-3
MEAN_MOTION_DOT = .19224E-3
MEAN_MOTION_DDOT = 0

CCSDS_OMM_VERS = 2.0
CREATION_DATE  = 
ORIGINATOR     = 

OBJECT_NAME    = CZ-2C R/B
OBJECT_ID      = 2022-132E
CENTER_NAME    = EARTH
REF_FRAME      = TEME
TIME_SYSTEM    = UTC
MEAN_ELEMENT_THEORY = SGP/SGP4

EPOCH          = 2025-12-20T21:46:48.127008
MEAN_MOTION    = 15.55282433
ECCENTRICITY   = .0021903
INCLINATION    = 97.2939
RA_OF_ASC_NODE = 351.2648
ARG_OF_PERICENTER = 29.4397
MEAN_ANOMALY   = 330.8086

EPHEMERIS_TYPE = 0
CLASSIFICATION_TYPE = U
NORAD_CAT_ID   = 54039
ELEMENT_SET_NO = 999
REV_AT_EPOCH   = 17810
BSTAR          = .35878565E-3
MEAN_MOTION_DOT = .24497E-3
MEAN_MOTION_DDOT = 0

CCSDS_OMM_VERS = 2.0
CREATION_DATE  = 
ORIGINATOR     = 

OBJECT_NAME    = GSLV R/B
OBJECT_ID      = 2022-138AN
CENTER_NAME    = EARTH
REF_FRAME      = TEME
TIME_SYSTEM    = UTC
MEAN_ELEMENT_THEORY = SGP/SGP4

EPOCH          = 2025-12-20T11:31:52.453344
MEAN_MOTION    = 14.96165446
ECCENTRICITY   = .00241535
INCLINATION    = 87.3823
RA_OF_ASC_NODE = 192.8814
ARG_OF_PERICENTER = 80.2368
MEAN_ANOMALY   = 280.1589

EPHEMERIS_TYPE = 0
CLASSIFICATION_TYPE = U
NORAD_CAT_ID   = 54149
ELEMENT_SET_NO = 999
REV_AT_EPOCH   = 17208
BSTAR          = .14728546E-3
MEAN_MOTION_DOT = .1697E-4
MEAN_MOTION_DDOT = 0

CCSDS_OMM_VERS = 2.0
CREATION_DATE  = 
ORIGINATOR     = 

OBJECT_NAME    = XRISM
OBJECT_ID      = 2023-137A
CENTER_NAME    = EARTH
REF_FRAME      = TEME
TIME_SYSTEM    = UTC
MEAN_ELEMENT_THEORY = SGP/SGP4

EPOCH          = 2025-12-20T13:35:30.519744
MEAN_MOTION    = 15.10405812
ECCENTRICITY   = .0007689
INCLINATION    = 31.0028
RA_OF_ASC_NODE = 75.0095
ARG_OF_PERICENTER = 323.7715
MEAN_ANOMALY   = 36.2402

EPHEMERIS_TYPE = 0
CLASSIFICATION_TYPE = U
NORAD_CAT_ID   = 57800
ELEMENT_SET_NO = 999
REV_AT_EPOCH   = 12581
BSTAR          = .19838E-3
MEAN_MOTION_DOT = .3437E-4
MEAN_MOTION_DDOT = 0

CCSDS_OMM_VERS = 2.0
CREATION_DATE  = 
ORIGINATOR     = 

OBJECT_NAME    = ACS3
OBJECT_ID      = 2024-077B
CENTER_NAME    = EARTH
REF_FRAME      = TEME
TIME_SYSTEM    = UTC
MEAN_ELEMENT_THEORY = SGP/SGP4

EPOCH          = 2025-12-20T21:55:14.615040
MEAN_MOTION    = 13.85832323
ECCENTRICITY   = .00760056
INCLINATION    = 97.2631
RA_OF_ASC_NODE = 308.6926
ARG_OF_PERICENTER = 318.1939
MEAN_ANOMALY   = 41.3432

EPHEMERIS_TYPE = 0
CLASSIFICATION_TYPE = U
NORAD_CAT_ID   = 59588
ELEMENT_SET_NO = 999
REV_AT_EPOCH   = 8327
BSTAR          = .12724534E-1
MEAN_MOTION_DOT = .14925E-3
MEAN_MOTION_DDOT = 0

CCSDS_OMM_VERS = 2.0
CREATION_DATE  = 
ORIGINATOR     = 

OBJECT_NAME    = SZ-21 MODULE
OBJECT_ID      = 2025-246C
CENTER_NAME    = EARTH
REF_FRAME      = TEME
TIME_SYSTEM    = UTC
MEAN_ELEMENT_THEORY = SGP/SGP4

EPOCH          = 2025-12-20T23:24:14.872896
MEAN_MOTION    = 15.62888699
ECCENTRICITY   = .00054503
INCLINATION    = 41.4771
RA_OF_ASC_NODE = 325.7933
ARG_OF_PERICENTER = 303.7455
MEAN_ANOMALY   = 56.2865

EPHEMERIS_TYPE = 0
CLASSIFICATION_TYPE = U
NORAD_CAT_ID   = 66515
ELEMENT_SET_NO = 999
REV_AT_EPOCH   = 573
BSTAR          = .22985973E-3
MEAN_MOTION_DOT = .21102E-3
MEAN_MOTION_DDOT = 0

